start=new Date('2021-09-28T00:00:00.000Z').valueOf();
sats=[{"GP_ID":"185669198","SITE":"AFETR","RA_OF_ASC_NODE":"271.7885","TLE_LINE1":"1 48450U 21040Y   21270.74137635 -.00000686  00000-0 -27205-4 0  9998","OBJECT_TYPE":"PAYLOAD","PERIAPSIS":"546.320","CLASSIFICATION_TYPE":"U","APOAPSIS":"548.163","INCLINATION":"53.0551","RCS_SIZE":"LARGE","COUNTRY_CODE":"US","PERIOD":"95.593","ELEMENT_SET_NO":"999","OBJECT_ID":"2021-040Y","FILE":"3131463","CENTER_NAME":"EARTH","REV_AT_EPOCH":"2186","MEAN_ANOMALY":"290.7427","MEAN_MOTION_DDOT":"0.0000000000000","MEAN_MOTION_DOT":"-0.00000686","DECAY_DATE":null,"TIME_SYSTEM":"UTC","ECCENTRICITY":"0.00013300","EPHEMERIS_TYPE":"0","OBJECT_NAME":"STARLINK-2660","REF_FRAME":"TEME","NORAD_CAT_ID":"48450","MEAN_MOTION":"15.06390869","LAUNCH_DATE":"2021-05-09","ARG_OF_PERICENTER":"69.3705","EPOCH":"2021-09-27T17:47:34.916640","SEMIMAJOR_AXIS":"6925.377","MEAN_ELEMENT_THEORY":"SGP4","TLE_LINE2":"2 48450  53.0551 271.7885 0001330  69.3705 290.7427 15.06390869 21862","BSTAR":"-0.00002720500000"},{"RCS_SIZE":"LARGE","INCLINATION":"53.0537","ELEMENT_SET_NO":"999","OBJECT_ID":"2021-040Z","PERIOD":"95.592","COUNTRY_CODE":"US","CENTER_NAME":"EARTH","FILE":"3131463","MEAN_MOTION_DDOT":"0.0000000000000","MEAN_ANOMALY":"297.1972","REV_AT_EPOCH":"2186","GP_ID":"185669845","TLE_LINE1":"1 48451U 21040Z   21270.73768944  .00000287  00000-0  38165-4 0  9993","RA_OF_ASC_NODE":"271.8057","OBJECT_TYPE":"PAYLOAD","SITE":"AFETR","CLASSIFICATION_TYPE":"U","PERIAPSIS":"546.320","APOAPSIS":"548.123","ARG_OF_PERICENTER":"62.9149","LAUNCH_DATE":"2021-05-09","SEMIMAJOR_AXIS":"6925.356","EPOCH":"2021-09-27T17:42:16.367616","TLE_LINE2":"2 48451  53.0537 271.8057 0001302  62.9149 297.1972 15.06397457 21865","MEAN_ELEMENT_THEORY":"SGP4","BSTAR":"0.00003816500000","MEAN_MOTION_DOT":"0.00000287","OBJECT_NAME":"STARLINK-2652","TIME_SYSTEM":"UTC","DECAY_DATE":null,"ECCENTRICITY":"0.00013020","EPHEMERIS_TYPE":"0","REF_FRAME":"TEME","NORAD_CAT_ID":"48451","MEAN_MOTION":"15.06397457"},{"PERIOD":"95.593","COUNTRY_CODE":"US","OBJECT_ID":"2021-040AA","ELEMENT_SET_NO":"999","INCLINATION":"53.0552","RCS_SIZE":"LARGE","MEAN_ANOMALY":"278.1006","REV_AT_EPOCH":"2186","MEAN_MOTION_DDOT":"0.0000000000000","FILE":"3131463","CENTER_NAME":"EARTH","GP_ID":"185669302","APOAPSIS":"548.194","PERIAPSIS":"546.274","CLASSIFICATION_TYPE":"U","SITE":"AFETR","TLE_LINE1":"1 48452U 21040AA  21270.74043336  .00000770  00000-0  70585-4 0  9995","RA_OF_ASC_NODE":"271.7920","OBJECT_TYPE":"PAYLOAD","LAUNCH_DATE":"2021-05-09","ARG_OF_PERICENTER":"82.0140","TLE_LINE2":"2 48452  53.0552 271.7920 0001386  82.0140 278.1006 15.06393326 21865","BSTAR":"0.00007058500000","MEAN_ELEMENT_THEORY":"SGP4","EPOCH":"2021-09-27T17:46:13.442304","SEMIMAJOR_AXIS":"6925.369","EPHEMERIS_TYPE":"0","ECCENTRICITY":"0.00013860","DECAY_DATE":null,"TIME_SYSTEM":"UTC","OBJECT_NAME":"STARLINK-2703","MEAN_MOTION_DOT":"0.00000770","NORAD_CAT_ID":"48452","MEAN_MOTION":"15.06393326","REF_FRAME":"TEME"},{"EPHEMERIS_TYPE":"0","DECAY_DATE":null,"TIME_SYSTEM":"UTC","ECCENTRICITY":"0.00011570","OBJECT_NAME":"STARLINK-2620","MEAN_MOTION_DOT":"-0.00000606","NORAD_CAT_ID":"48453","MEAN_MOTION":"15.06391573","REF_FRAME":"TEME","LAUNCH_DATE":"2021-05-09","ARG_OF_PERICENTER":"69.0038","BSTAR":"-0.00002180500000","TLE_LINE2":"2 48453  53.0544 271.8252 0001157  69.0038 291.1074 15.06391573 21865","MEAN_ELEMENT_THEORY":"SGP4","EPOCH":"2021-09-27T17:36:58.005216","SEMIMAJOR_AXIS":"6925.374","GP_ID":"185669414","APOAPSIS":"548.041","PERIAPSIS":"546.438","CLASSIFICATION_TYPE":"U","SITE":"AFETR","RA_OF_ASC_NODE":"271.8252","TLE_LINE1":"1 48453U 21040AB  21270.73400469 -.00000606  00000-0 -21805-4 0  9990","OBJECT_TYPE":"PAYLOAD","COUNTRY_CODE":"US","PERIOD":"95.593","ELEMENT_SET_NO":"999","OBJECT_ID":"2021-040AB","INCLINATION":"53.0544","RCS_SIZE":"LARGE","MEAN_ANOMALY":"291.1074","REV_AT_EPOCH":"2186","MEAN_MOTION_DDOT":"0.0000000000000","FILE":"3131463","CENTER_NAME":"EARTH"},{"COUNTRY_CODE":"US","PERIOD":"95.592","OBJECT_ID":"2021-040AC","ELEMENT_SET_NO":"999","INCLINATION":"53.0555","RCS_SIZE":"LARGE","REV_AT_EPOCH":"2186","MEAN_ANOMALY":"293.6845","MEAN_MOTION_DDOT":"0.0000000000000","FILE":"3131463","CENTER_NAME":"EARTH","GP_ID":"185669523","APOAPSIS":"548.243","PERIAPSIS":"546.162","CLASSIFICATION_TYPE":"U","SITE":"AFETR","TLE_LINE1":"1 48454U 21040AC  21270.73031567 -.00000649  00000-0 -24690-4 0  9992","RA_OF_ASC_NODE":"271.8371","OBJECT_TYPE":"PAYLOAD","LAUNCH_DATE":"2021-05-09","ARG_OF_PERICENTER":"66.4302","BSTAR":"-0.00002469000000","TLE_LINE2":"2 48454  53.0555 271.8371 0001503  66.4302 293.6845 15.06403601 21869","MEAN_ELEMENT_THEORY":"SGP4","EPOCH":"2021-09-27T17:31:39.273888","SEMIMAJOR_AXIS":"6925.338","EPHEMERIS_TYPE":"0","DECAY_DATE":null,"TIME_SYSTEM":"UTC","ECCENTRICITY":"0.00015030","OBJECT_NAME":"STARLINK-2654","MEAN_MOTION_DOT":"-0.00000649","MEAN_MOTION":"15.06403601","NORAD_CAT_ID":"48454","REF_FRAME":"TEME"},{"DECAY_DATE":null,"ECCENTRICITY":"0.00011520","TIME_SYSTEM":"UTC","EPHEMERIS_TYPE":"0","OBJECT_NAME":"STARLINK-2497","MEAN_MOTION_DOT":"0.00001999","REF_FRAME":"TEME","MEAN_MOTION":"15.06402934","NORAD_CAT_ID":"48455","LAUNCH_DATE":"2021-05-09","ARG_OF_PERICENTER":"66.1052","MEAN_ELEMENT_THEORY":"SGP4","TLE_LINE2":"2 48455  53.0515 271.8739 0001152  66.1052 294.0058 15.06402934 21851","BSTAR":"0.00015304000000","EPOCH":"2021-09-27T17:26:20.388768","SEMIMAJOR_AXIS":"6925.340","GP_ID":"185669738","CLASSIFICATION_TYPE":"U","PERIAPSIS":"546.407","APOAPSIS":"548.002","SITE":"AFETR","TLE_LINE1":"1 48455U 21040AD  21270.72662487  .00001999  00000-0  15304-3 0  9991","OBJECT_TYPE":"PAYLOAD","RA_OF_ASC_NODE":"271.8739","COUNTRY_CODE":"US","PERIOD":"95.592","ELEMENT_SET_NO":"999","OBJECT_ID":"2021-040AD","INCLINATION":"53.0515","RCS_SIZE":"LARGE","MEAN_ANOMALY":"294.0058","REV_AT_EPOCH":"2185","MEAN_MOTION_DDOT":"0.0000000000000","FILE":"3131463","CENTER_NAME":"EARTH"},{"MEAN_MOTION":"15.06404088","NORAD_CAT_ID":"48456","REF_FRAME":"TEME","EPHEMERIS_TYPE":"0","DECAY_DATE":null,"TIME_SYSTEM":"UTC","ECCENTRICITY":"0.00011510","OBJECT_NAME":"STARLINK-2508","MEAN_MOTION_DOT":"0.00000336","MEAN_ELEMENT_THEORY":"SGP4","TLE_LINE2":"2 48456  53.0533 271.8874 0001151  60.1263 299.9841 15.06404088 21855","BSTAR":"0.00004146800000","EPOCH":"2021-09-27T17:21:02.239776","SEMIMAJOR_AXIS":"6925.336","LAUNCH_DATE":"2021-05-09","ARG_OF_PERICENTER":"60.1263","APOAPSIS":"547.998","PERIAPSIS":"546.404","CLASSIFICATION_TYPE":"U","SITE":"AFETR","TLE_LINE1":"1 48456U 21040AE  21270.72294259  .00000336  00000-0  41468-4 0  9995","OBJECT_TYPE":"PAYLOAD","RA_OF_ASC_NODE":"271.8874","GP_ID":"185669628","REV_AT_EPOCH":"2185","MEAN_ANOMALY":"299.9841","MEAN_MOTION_DDOT":"0.0000000000000","FILE":"3131463","CENTER_NAME":"EARTH","PERIOD":"95.592","COUNTRY_CODE":"US","OBJECT_ID":"2021-040AE","ELEMENT_SET_NO":"999","INCLINATION":"53.0533","RCS_SIZE":"LARGE"},{"ARG_OF_PERICENTER":"73.9430","LAUNCH_DATE":"2021-05-09","SEMIMAJOR_AXIS":"6925.384","EPOCH":"2021-09-27T17:26:58.815168","TLE_LINE2":"2 48458  53.0532 276.8547 0001097  73.9430 286.1679 15.06388323 22508","MEAN_ELEMENT_THEORY":"SGP4","BSTAR":"-0.00003844300000","MEAN_MOTION_DOT":"-0.00000854","OBJECT_NAME":"STARLINK-2698","EPHEMERIS_TYPE":"0","DECAY_DATE":null,"TIME_SYSTEM":"UTC","ECCENTRICITY":"0.00010970","NORAD_CAT_ID":"48458","MEAN_MOTION":"15.06388323","REF_FRAME":"TEME","RCS_SIZE":"LARGE","INCLINATION":"53.0532","OBJECT_ID":"2021-040AG","ELEMENT_SET_NO":"999","PERIOD":"95.593","COUNTRY_CODE":"US","CENTER_NAME":"EARTH","FILE":"3131463","MEAN_MOTION_DDOT":"0.0000000000000","MEAN_ANOMALY":"286.1679","REV_AT_EPOCH":"2250","GP_ID":"185669091","OBJECT_TYPE":"PAYLOAD","TLE_LINE1":"1 48458U 21040AG  21270.72706962 -.00000854  00000-0 -38443-4 0  9992","RA_OF_ASC_NODE":"276.8547","SITE":"AFETR","APOAPSIS":"548.009","PERIAPSIS":"546.490","CLASSIFICATION_TYPE":"U"},{"ARG_OF_PERICENTER":"71.7077","LAUNCH_DATE":"2021-05-09","TLE_LINE2":"2 48459  53.0551 276.7129 0000601  71.7077 288.3977 15.06402465 21809","MEAN_ELEMENT_THEORY":"SGP4","BSTAR":"0.00011913000000","SEMIMAJOR_AXIS":"6925.341","EPOCH":"2021-09-27T18:14:44.242656","OBJECT_NAME":"STARLINK-2579","EPHEMERIS_TYPE":"0","DECAY_DATE":null,"ECCENTRICITY":"0.00006010","TIME_SYSTEM":"UTC","MEAN_MOTION_DOT":"0.00001494","NORAD_CAT_ID":"48459","MEAN_MOTION":"15.06402465","REF_FRAME":"TEME","ELEMENT_SET_NO":"999","OBJECT_ID":"2021-040AH","COUNTRY_CODE":"US","PERIOD":"95.592","RCS_SIZE":"LARGE","INCLINATION":"53.0551","MEAN_MOTION_DDOT":"0.0000000000000","REV_AT_EPOCH":"2180","MEAN_ANOMALY":"288.3977","CENTER_NAME":"EARTH","FILE":"3131463","GP_ID":"185669199","APOAPSIS":"547.622","CLASSIFICATION_TYPE":"U","PERIAPSIS":"546.790","TLE_LINE1":"1 48459U 21040AH  21270.76023429  .00001494  00000-0  11913-3 0  9998","RA_OF_ASC_NODE":"276.7129","OBJECT_TYPE":"PAYLOAD","SITE":"AFETR"},{"APOAPSIS":"547.762","PERIAPSIS":"546.747","CLASSIFICATION_TYPE":"U","SITE":"AFETR","TLE_LINE1":"1 48460U 21040AJ  21270.74644293 -.00000575  00000-0 -19760-4 0  9996","OBJECT_TYPE":"PAYLOAD","RA_OF_ASC_NODE":"276.7734","GP_ID":"185669846","REV_AT_EPOCH":"2230","MEAN_ANOMALY":"292.5184","MEAN_MOTION_DDOT":"0.0000000000000","FILE":"3131463","CENTER_NAME":"EARTH","COUNTRY_CODE":"US","PERIOD":"95.593","ELEMENT_SET_NO":"999","OBJECT_ID":"2021-040AJ","INCLINATION":"53.0544","RCS_SIZE":"LARGE","NORAD_CAT_ID":"48460","MEAN_MOTION":"15.06386523","REF_FRAME":"TEME","EPHEMERIS_TYPE":"0","DECAY_DATE":null,"TIME_SYSTEM":"UTC","ECCENTRICITY":"0.00007330","OBJECT_NAME":"STARLINK-2582","MEAN_MOTION_DOT":"-0.00000575","TLE_LINE2":"2 48460  53.0544 276.7734 0000733  67.5882 292.5184 15.06386523 22307","BSTAR":"-0.00001976000000","MEAN_ELEMENT_THEORY":"SGP4","EPOCH":"2021-09-27T17:54:52.669152","SEMIMAJOR_AXIS":"6925.390","LAUNCH_DATE":"2021-05-09","ARG_OF_PERICENTER":"67.5882"}];
